{
    "type": "FeatureCollection",
    "features": [
      {"type":"Feature","geometry":{"type":"LineString","coordinates":[[106.7080785,10.7537157],[106.7086735,10.7537184],[106.7092395,10.7537109]]},"properties":{"highway":"service","name":"Hẻm 263 Đường Xóm Chiếu","surface":"concrete"}},
{"type":"Feature","geometry":{"type":"LineString","coordinates":[[106.7120977,10.7601366],[106.7126143,10.7598207],[106.7120599,10.7589088],[106.7119738,10.7589518],[106.7120111,10.7590342],[106.7117454,10.7591634],[106.7117804,10.7592697],[106.7115296,10.7594247],[106.7120054,10.7601465],[106.7120977,10.7601366]]},"properties":{"addr:housename":"Trường THPT Nguyễn Trãi","addr:housenumber":"364","addr:street":"Nguyễn Tất Thành","amenity":"school","grades":"10-12","name":"Trường THPT Nguyễn Trãi","name:en":"Nguyen Trai High School","name:id":"SMA Nguyen Trai","name:zh":"阮廌高中"}},
{"type":"Feature","geometry":{"type":"LineString","coordinates":[[106.7158352,10.7264504],[106.7158908,10.7247846],[106.7124568,10.7246792],[106.7124013,10.726403],[106.7158352,10.7264504]]},"properties":{"landuse":"residential","name":"Phú Gia","ref":"H21;H22;H27;H28"}},
{"type":"Feature","geometry":{"type":"LineString","coordinates":[[106.698347,10.7597554],[106.6982036,10.7596568],[106.6982668,10.7595691],[106.6983612,10.7596389],[106.6983804,10.7596577],[106.6983864,10.7596828],[106.6983808,10.7597055],[106.698347,10.7597554]]},"properties":{"building":"yes","name":"FPT Shop Khánh Hội","name:en":"FPT Shop - Appliances","shop":"mobile_phone"}},
{"type":"Feature","geometry":{"type":"LineString","coordinates":[[106.7024544,10.7560773],[106.7024512,10.7561415],[106.7024524,10.7561692]]},"properties":{"highway":"residential","name":"Đường Tân Vĩnh","name:en":"Tan Vinh Street","name:id":"Jalan Tan Vinh","name:ru":"улица Тан Винь","name:zh":"新永路","oneway":"no","surface":"asphalt"}},
{"type":"Feature","geometry":{"type":"LineString","coordinates":[[106.7220209,10.7272701],[106.7225162,10.7264657],[106.722824,10.7266486],[106.7223286,10.727453],[106.7220209,10.7272701]]},"properties":{"building":"yes","building:levels":"4","name":"Unilever"}},
{"type":"Feature","geometry":{"type":"LineString","coordinates":[[106.6986072,10.7580248],[106.6987109,10.7578875],[106.6984644,10.7577078],[106.6983607,10.7578451],[106.6986072,10.7580248]]},"properties":{"leisure":"pitch"}},
{"type":"Feature","geometry":{"type":"LineString","coordinates":[[106.7168706,10.7554731],[106.7172612,10.7552861],[106.7170191,10.7548425],[106.7166224,10.7550512],[106.7168706,10.7554731]]},"properties":{"amenity":"school","name":"Trường THCS Khánh Hội A","name:en":"Khanh Hoi A Secondary School","name:id":"SMP Khanh Hoi A","name:ru":"Средняя школа «Хань Хой А»","name:zh":"庆会A初中"}},
{"type":"Feature","geometry":{"type":"LineString","coordinates":[[106.6968012,10.7604076],[106.6971398,10.7600906],[106.6970294,10.7599767],[106.6966907,10.7602937],[106.6968012,10.7604076]]},"properties":{"amenity":"place_of_worship","building":"temple","name":"Tam giáo điện Minh Tân","name:en":"Minh Tan Three Religions’ Temple","name:id":"Kuil Tiga Agama Minh Tan","name:zh":"明新三教殿","religion":"caodaism"}},
{"type":"Feature","geometry":{"type":"LineString","coordinates":[[106.7212812,10.7247944],[106.7202643,10.7241786]]},"properties":{"highway":"residential","surface":"paving_stones"}}
    ]
  }